STARLINK-2512           
1 48319U 21036AV  25243.50446890  .00002951  00000+0  21699-3 0  9995
2 48319  53.0538 235.3823 0001361 115.4258 244.6872 15.06388801239360
STARLINK-2029           
1 48320U 21036AW  25243.23634354  .00000732  00000+0  68053-4 0  9992
2 48320  53.0542 236.5953 0001336  78.4265 281.6874 15.06394355239322
STARLINK-2457           
1 48321U 21036AX  25243.49804806  .00000376  00000+0  44129-4 0  9994
2 48321  53.0543 235.4251 0001106  86.2269 273.8846 15.06395933239368
STARLINK-2515           
1 48323U 21036AZ  25243.42431767 -.00000475  00000+0 -12992-4 0  9996
2 48323  53.0539 235.7543 0001810 103.1109 257.0082 15.06405483239353
STARLINK-2495           
1 48325U 21036BB  25243.21789883  .00000182  00000+0  31095-4 0  9998
2 48325  53.0533 236.6813 0001282  84.9402 275.1733 15.06405479239320
STARLINK-2498           
1 48326U 21036BC  25243.41326993  .00000332  00000+0  41182-4 0  9995
2 48326  53.0528 235.8045 0001332  89.4467 270.6675 15.06392057239355
STARLINK-2502           
1 48327U 21036BD  25243.47591841  .00001597  00000+0  12608-3 0  9992
2 48327  53.0535 235.5241 0001297  90.6001 269.5137 15.06405837239369
STARLINK-2504           
1 48328U 21036BE  25243.47223021  .00004442  00000+0  31681-3 0  9999
2 48328  53.0527 235.5410 0001429  77.7013 282.4136 15.06410240239362
STARLINK-2510           
1 48329U 21036BF  25243.46855112  .00002373  00000+0  17815-3 0  9995
2 48329  53.0542 235.5572 0001066  90.2566 269.8546 15.06396596239360
STARLINK-2501           
1 48330U 21036BG  25243.46486127  .00001908  00000+0  14690-3 0  9994
2 48330  53.0537 235.5694 0000897  88.4035 271.7056 15.06405844239367
STARLINK-2514           
1 48331U 21036BH  25243.39484132  .00000791  00000+0  71991-4 0  9998
2 48331  53.0535 235.8881 0001232  83.2223 276.8906 15.06397282239358
STARLINK-2511           
1 48332U 21036BJ  25243.39389147  .00000378  00000+0  44291-4 0  9993
2 48332  53.0538 235.8920 0001092  68.6173 291.4933 15.06397649239351
STARLINK-2518           
1 48333U 21036BK  25243.45377778  .00004536  00000+0  32289-3 0  9991
2 48333  53.0541 235.6186 0001003  86.2654 273.8449 15.06437163239363
STARLINK-2470           
1 48334U 21036BL  25243.38377790  .00000336  00000+0  41473-4 0  9998
2 48334  53.0541 235.9340 0001287  84.7778 275.3358 15.06398214239351
STARLINK-2613           
1 48353U 21038A   25243.12024775  .00006067  00000+0  42584-3 0  9995
2 48353  53.0550 137.1177 0001542  82.4589 277.6575 15.06400902238300
STARLINK-2674           
1 48354U 21038B   25243.11655093 -.00005820  00000+0 -37232-3 0  9990
2 48354  53.0533 137.1351 0001065  89.6834 270.4277 15.06381929238305
