[{"OBJECT_NAME":"STARLINK-2512","OBJECT_ID":"2021-036AV","EPOCH":"2025-08-31T12:06:26.112960","MEAN_MOTION":15.06388801,"ECCENTRICITY":0.00013612,"INCLINATION":53.0538,"RA_OF_ASC_NODE":235.3823,"ARG_OF_PERICENTER":115.4258,"MEAN_ANOMALY":244.6872,"EPHEMERIS_TYPE":0,"CLASSIFICATION_TYPE":"U","NORAD_CAT_ID":48319,"ELEMENT_SET_NO":999,"REV_AT_EPOCH":23936,"BSTAR":0.00021699096,"MEAN_MOTION_DOT":2.951e-5,"MEAN_MOTION_DDOT":0},{"OBJECT_NAME":"STARLINK-2029","OBJECT_ID":"2021-036AW","EPOCH":"2025-08-31T05:40:20.081856","MEAN_MOTION":15.06394355,"ECCENTRICITY":0.00013365,"INCLINATION":53.0542,"RA_OF_ASC_NODE":236.5953,"ARG_OF_PERICENTER":78.4265,"MEAN_ANOMALY":281.6874,"EPHEMERIS_TYPE":0,"CLASSIFICATION_TYPE":"U","NORAD_CAT_ID":48320,"ELEMENT_SET_NO":999,"REV_AT_EPOCH":23932,"BSTAR":6.8053305e-5,"MEAN_MOTION_DOT":7.32e-6,"MEAN_MOTION_DDOT":0},{"OBJECT_NAME":"STARLINK-2457","OBJECT_ID":"2021-036AX","EPOCH":"2025-08-31T11:57:11.352384","MEAN_MOTION":15.06395933,"ECCENTRICITY":0.00011063,"INCLINATION":53.0543,"RA_OF_ASC_NODE":235.4251,"ARG_OF_PERICENTER":86.2269,"MEAN_ANOMALY":273.8846,"EPHEMERIS_TYPE":0,"CLASSIFICATION_TYPE":"U","NORAD_CAT_ID":48321,"ELEMENT_SET_NO":999,"REV_AT_EPOCH":23936,"BSTAR":4.4129332e-5,"MEAN_MOTION_DOT":3.76e-6,"MEAN_MOTION_DDOT":0},{"OBJECT_NAME":"STARLINK-2515","OBJECT_ID":"2021-036AZ","EPOCH":"2025-08-31T10:11:01.046688","MEAN_MOTION":15.06405483,"ECCENTRICITY":0.00018107,"INCLINATION":53.0539,"RA_OF_ASC_NODE":235.7543,"ARG_OF_PERICENTER":103.1109,"MEAN_ANOMALY":257.0082,"EPHEMERIS_TYPE":0,"CLASSIFICATION_TYPE":"U","NORAD_CAT_ID":48323,"ELEMENT_SET_NO":999,"REV_AT_EPOCH":23935,"BSTAR":-1.2992224e-5,"MEAN_MOTION_DOT":-4.75e-6,"MEAN_MOTION_DDOT":0},{"OBJECT_NAME":"STARLINK-2495","OBJECT_ID":"2021-036BB","EPOCH":"2025-08-31T05:13:46.458912","MEAN_MOTION":15.06405479,"ECCENTRICITY":0.0001282,"INCLINATION":53.0533,"RA_OF_ASC_NODE":236.6813,"ARG_OF_PERICENTER":84.9402,"MEAN_ANOMALY":275.1733,"EPHEMERIS_TYPE":0,"CLASSIFICATION_TYPE":"U","NORAD_CAT_ID":48325,"ELEMENT_SET_NO":999,"REV_AT_EPOCH":23932,"BSTAR":3.109546e-5,"MEAN_MOTION_DOT":1.82e-6,"MEAN_MOTION_DDOT":0},{"OBJECT_NAME":"STARLINK-2498","OBJECT_ID":"2021-036BC","EPOCH":"2025-08-31T09:55:06.521952","MEAN_MOTION":15.06392057,"ECCENTRICITY":0.00013328,"INCLINATION":53.0528,"RA_OF_ASC_NODE":235.8045,"ARG_OF_PERICENTER":89.4467,"MEAN_ANOMALY":270.6675,"EPHEMERIS_TYPE":0,"CLASSIFICATION_TYPE":"U","NORAD_CAT_ID":48326,"ELEMENT_SET_NO":999,"REV_AT_EPOCH":23935,"BSTAR":4.11821e-5,"MEAN_MOTION_DOT":3.32e-6,"MEAN_MOTION_DDOT":0},{"OBJECT_NAME":"STARLINK-2502","OBJECT_ID":"2021-036BD","EPOCH":"2025-08-31T11:25:19.350624","MEAN_MOTION":15.06405837,"ECCENTRICITY":0.00012977,"INCLINATION":53.0535,"RA_OF_ASC_NODE":235.5241,"ARG_OF_PERICENTER":90.6001,"MEAN_ANOMALY":269.5137,"EPHEMERIS_TYPE":0,"CLASSIFICATION_TYPE":"U","NORAD_CAT_ID":48327,"ELEMENT_SET_NO":999,"REV_AT_EPOCH":23936,"BSTAR":0.00012607516,"MEAN_MOTION_DOT":1.597e-5,"MEAN_MOTION_DDOT":0},{"OBJECT_NAME":"STARLINK-2504","OBJECT_ID":"2021-036BE","EPOCH":"2025-08-31T11:20:00.690144","MEAN_MOTION":15.0641024,"ECCENTRICITY":0.00014293,"INCLINATION":53.0527,"RA_OF_ASC_NODE":235.541,"ARG_OF_PERICENTER":77.7013,"MEAN_ANOMALY":282.4136,"EPHEMERIS_TYPE":0,"CLASSIFICATION_TYPE":"U","NORAD_CAT_ID":48328,"ELEMENT_SET_NO":999,"REV_AT_EPOCH":23936,"BSTAR":0.00031680775,"MEAN_MOTION_DOT":4.442e-5,"MEAN_MOTION_DDOT":0},{"OBJECT_NAME":"STARLINK-2510","OBJECT_ID":"2021-036BF","EPOCH":"2025-08-31T11:14:42.816768","MEAN_MOTION":15.06396596,"ECCENTRICITY":0.00010665,"INCLINATION":53.0542,"RA_OF_ASC_NODE":235.5572,"ARG_OF_PERICENTER":90.2566,"MEAN_ANOMALY":269.8546,"EPHEMERIS_TYPE":0,"CLASSIFICATION_TYPE":"U","NORAD_CAT_ID":48329,"ELEMENT_SET_NO":999,"REV_AT_EPOCH":23936,"BSTAR":0.00017814566,"MEAN_MOTION_DOT":2.373e-5,"MEAN_MOTION_DDOT":0},{"OBJECT_NAME":"STARLINK-2501","OBJECT_ID":"2021-036BG","EPOCH":"2025-08-31T11:09:24.013728","MEAN_MOTION":15.06405844,"ECCENTRICITY":8.975e-5,"INCLINATION":53.0537,"RA_OF_ASC_NODE":235.5694,"ARG_OF_PERICENTER":88.4035,"MEAN_ANOMALY":271.7056,"EPHEMERIS_TYPE":0,"CLASSIFICATION_TYPE":"U","NORAD_CAT_ID":48330,"ELEMENT_SET_NO":999,"REV_AT_EPOCH":23936,"BSTAR":0.0001468959,"MEAN_MOTION_DOT":1.908e-5,"MEAN_MOTION_DDOT":0},{"OBJECT_NAME":"STARLINK-2514","OBJECT_ID":"2021-036BH","EPOCH":"2025-08-31T09:28:34.290048","MEAN_MOTION":15.06397282,"ECCENTRICITY":0.00012325,"INCLINATION":53.0535,"RA_OF_ASC_NODE":235.8881,"ARG_OF_PERICENTER":83.2223,"MEAN_ANOMALY":276.8906,"EPHEMERIS_TYPE":0,"CLASSIFICATION_TYPE":"U","NORAD_CAT_ID":48331,"ELEMENT_SET_NO":999,"REV_AT_EPOCH":23935,"BSTAR":7.1991427e-5,"MEAN_MOTION_DOT":7.91e-6,"MEAN_MOTION_DDOT":0},{"OBJECT_NAME":"STARLINK-2511","OBJECT_ID":"2021-036BJ","EPOCH":"2025-08-31T09:27:12.223008","MEAN_MOTION":15.06397649,"ECCENTRICITY":0.00010924,"INCLINATION":53.0538,"RA_OF_ASC_NODE":235.892,"ARG_OF_PERICENTER":68.6173,"MEAN_ANOMALY":291.4933,"EPHEMERIS_TYPE":0,"CLASSIFICATION_TYPE":"U","NORAD_CAT_ID":48332,"ELEMENT_SET_NO":999,"REV_AT_EPOCH":23935,"BSTAR":4.429149e-5,"MEAN_MOTION_DOT":3.78e-6,"MEAN_MOTION_DDOT":0},{"OBJECT_NAME":"STARLINK-2518","OBJECT_ID":"2021-036BK","EPOCH":"2025-08-31T10:53:26.400192","MEAN_MOTION":15.06437163,"ECCENTRICITY":0.00010039,"INCLINATION":53.0541,"RA_OF_ASC_NODE":235.6186,"ARG_OF_PERICENTER":86.2654,"MEAN_ANOMALY":273.8449,"EPHEMERIS_TYPE":0,"CLASSIFICATION_TYPE":"U","NORAD_CAT_ID":48333,"ELEMENT_SET_NO":999,"REV_AT_EPOCH":23936,"BSTAR":0.00032289231,"MEAN_MOTION_DOT":4.536e-5,"MEAN_MOTION_DDOT":0},{"OBJECT_NAME":"STARLINK-2470","OBJECT_ID":"2021-036BL","EPOCH":"2025-08-31T09:12:38.410560","MEAN_MOTION":15.06398214,"ECCENTRICITY":0.00012876,"INCLINATION":53.0541,"RA_OF_ASC_NODE":235.934,"ARG_OF_PERICENTER":84.7778,"MEAN_ANOMALY":275.3358,"EPHEMERIS_TYPE":0,"CLASSIFICATION_TYPE":"U","NORAD_CAT_ID":48334,"ELEMENT_SET_NO":999,"REV_AT_EPOCH":23935,"BSTAR":4.1473421e-5,"MEAN_MOTION_DOT":3.36e-6,"MEAN_MOTION_DDOT":0},{"OBJECT_NAME":"STARLINK-2613","OBJECT_ID":"2021-038A","EPOCH":"2025-08-31T02:53:09.405600","MEAN_MOTION":15.06400902,"ECCENTRICITY":0.00015428,"INCLINATION":53.055,"RA_OF_ASC_NODE":137.1177,"ARG_OF_PERICENTER":82.4589,"MEAN_ANOMALY":277.6575,"EPHEMERIS_TYPE":0,"CLASSIFICATION_TYPE":"U","NORAD_CAT_ID":48353,"ELEMENT_SET_NO":999,"REV_AT_EPOCH":23830,"BSTAR":0.0004258389,"MEAN_MOTION_DOT":6.067e-5,"MEAN_MOTION_DDOT":0},{"OBJECT_NAME":"STARLINK-2674","OBJECT_ID":"2021-038B","EPOCH":"2025-08-31T02:47:50.000352","MEAN_MOTION":15.06381929,"ECCENTRICITY":0.00010657,"INCLINATION":53.0533,"RA_OF_ASC_NODE":137.1351,"ARG_OF_PERICENTER":89.6834,"MEAN_ANOMALY":270.4277,"EPHEMERIS_TYPE":0,"CLASSIFICATION_TYPE":"U","NORAD_CAT_ID":48354,"ELEMENT_SET_NO":999,"REV_AT_EPOCH":23830,"BSTAR":-0.00037231842,"MEAN_MOTION_DOT":-5.82e-5,"MEAN_MOTION_DDOT":0}]
